STARLINK-11652 [DTC]    
1 63315U 25057J   26123.47109665  .00344137  00000+0  25579-2 0  9990
2 63315  42.9989 294.2934 0001793 239.4858 120.5833 15.71007767 65827
STARLINK-11645 [DTC]    
1 63316U 25057K   26123.87384115  .00289283  00000+0  21736-2 0  9991
2 63316  43.0011 292.1657 0001737 284.7286  75.3389 15.70914781 65882
STARLINK-11633 [DTC]    
1 63317U 25057L   26123.83335647  .00032613  00000+0  25726-3 0  9991
2 63317  43.0003 291.7393 0001561 272.3211 129.1407 15.70783236  5985
STARLINK-11593 [DTC]    
1 63318U 25057M   26123.83667377  .00266034  00000+0  20086-2 0  9999
2 63318  43.0001 291.8646 0001712 284.4470  75.6208 15.70869345 65880
STARLINK-11588 [DTC]    
1 63319U 25057N   26123.46578804  .00228133  00000+0  17247-2 0  9998
2 63319  43.0000 294.2489 0001827 246.5388 113.5288 15.70955245 65791
STARLINK-33671          
1 63320U 25057P   26123.83181372  .00020715  00000+0  75993-3 0  9990
2 63320  43.0012  68.7999 0000797 258.0889 101.9873 15.27590418 64334
STARLINK-33650          
1 63321U 25057Q   26123.57268278  .00029295  00000+0  10700-2 0  9999
2 63321  43.0023  80.6771 0001227 274.4535  85.6176 15.27575606 64131
STARLINK-33689          
1 63322U 25057R   26123.89189191  .00020368  00000+0  74751-3 0  9990
2 63322  42.9979  78.7697 0000737 289.5979  70.4793 15.27585851 64229
STARLINK-33607          
1 63323U 25057S   26123.58680337  .00014315  00000+0  52866-3 0  9993
2 63323  43.0018  80.7892 0000702 246.9826 113.0951 15.27583341 64138
STARLINK-33619          
1 63324U 25057T   26123.29441544  .00013908  00000+0  51392-3 0  9997
2 63324  43.0010  82.0243 0001382 270.3349  89.7345 15.27582946 64138
STARLINK-33612          
1 63325U 25057U   26123.87276360  .00019861  00000+0  72926-3 0  9994
2 63325  43.0019  79.4887 0001213 269.9856  90.0857 15.27582656 64212
STARLINK-33672          
1 63326U 25057V   26123.57139769  .00031627  00000+0  11553-2 0  9995
2 63326  43.0011  80.6516 0001481 249.9725 110.0967 15.27539439 64179
STARLINK-33625          
1 63327U 25057W   26123.34151274  .00025323  00000+0  92765-3 0  9997
2 63327  43.0000  74.5991 0001226 263.9169  96.1543 15.27541694 64228
STARLINK-33699          
1 63328U 25057X   26123.26454625  .00015293  00000+0  56406-3 0  9992
2 63328  43.0033  74.8746 0001389 273.9506  86.1186 15.27581978 64177
STARLINK-33674          
1 63329U 25057Y   26123.59451803  .00025276  00000+0  92481-3 0  9999
2 63329  43.0004  80.8419 0000055  37.7951 322.2905 15.27582725 64173
YUNYAO-1 43             
1 63344U 25059A   26123.84501443  .00003871  00000+0  23695-3 0  9990
2 63344  97.6102 305.4560 0013365 310.4895  49.5169 15.10739708 61606
YUNYAO-1 44             
1 63345U 25059B   26123.83259728  .00003444  00000+0  21095-3 0  9994
2 63345  97.6092 305.4064 0015745 313.5980  46.3942 15.10763066 61605
YUNYAO-1 45             
1 63346U 25059C   26123.82410219  .00003258  00000+0  19991-3 0  9993
2 63346  97.6117 305.5662 0014722 313.4260  46.5744 15.10758883 61606
YUNYAO-1 46             
1 63347U 25059D   26123.85600751  .00003981  00000+0  24378-3 0  9997
2 63347  97.6110 305.4967 0010707 301.9469  58.0719 15.10735272 61606
YUNYAO-1 47             
1 63348U 25059E   26123.85736014  .00003928  00000+0  23906-3 0  9997
2 63348  97.6082 305.5031 0014922 314.0121  45.9878 15.10921729 61606
YUNYAO-1 48             
1 63349U 25059F   26123.83951688  .00003671  00000+0  22330-3 0  9997
2 63349  97.6097 305.5901 0014271 316.4094  43.6007 15.10990712 61608
LEMUR-2-UNTITLED-SC     
1 63351U 25061A   26123.85300821  .00003834  00000+0  21890-3 0  9993
2 63351  97.5619  99.5573 0020566  60.9915 299.3374 15.13161564 60886
LEMUR-2-ESPERANZA       
1 63352U 25061B   26123.83284598  .00004013  00000+0  22843-3 0  9993
2 63352  97.5625  99.6207 0020120  60.5503 299.7732 15.13248654 60882
LEMUR-2-KREMPEL-BRO2    
1 63353U 25061C   26123.87244410  .00004843  00000+0  27151-3 0  9995
2 63353  97.5672 100.1367 0020890  53.3306 306.9841 15.13677451 60901
LEMUR-2-THERMORAPTOR    
1 63354U 25061D   26123.85670299  .00004306  00000+0  24138-3 0  9998
2 63354  97.5679 100.1886 0020643  52.6367 307.6740 15.13748751 60908
LEMUR-2-NEUROSPICY      
1 63355U 25061E   26123.83169522  .00004267  00000+0  23870-3 0  9997
2 63355  97.5604  99.8246 0018522  56.5145 303.7854 15.13860490 60909
LEMUR-2-TILLINFINITY    
1 63356U 25061F   26123.88418595  .00005189  00000+0  28459-3 0  9992
2 63356  97.5590 100.1360 0019442  44.9021 315.3780 15.14448677 60933
LEMUR-2-KREMPEL-BRO1    
1 63357U 25061G   26123.85197733  .00004204  00000+0  23247-3 0  9995
2 63357  97.5592 100.0323 0020185  46.1740 314.1156 15.14257725 60927
LEMUR-2-LANGER2SPACE    
1 63358U 25061H   26123.86965308  .00004713  00000+0  26258-3 0  9998
2 63358  97.5594  99.8816 0018333  54.8809 305.4137 15.13956457 60914
TIANLIAN 2-04           
1 63361U 25062A   26123.78257524 -.00000130  00000+0  00000+0 0  9991
2 63361   4.4886 275.0693 0032408  11.4648 296.9213  1.00272734  4152
STARLINK-32840          
1 63363U 25063A   26123.51392029  .00022017  00000+0  75309-3 0  9990
2 63363  53.1565 154.9565 0000968  63.4846 296.6254 15.30207868 63178
STARLINK-32543          
1 63364U 25063B   26123.25160574  .00025432  00000+0  86752-3 0  9998
2 63364  53.1565 156.1640 0001237  93.5867 266.5275 15.30211827 63140
STARLINK-33741          
1 63365U 25063C   26123.26850251  .00031134  00000+0  72145-3 0  9995
2 63365  53.1595 158.3896 0001226  95.4515 264.6631 15.42182903 63128
STARLINK-33742          
1 63366U 25063D   26123.50295117  .00019645  00000+0  67347-3 0  9998
2 63366  53.1581 157.7172 0001052  83.2624 276.8497 15.30208404 63102
STARLINK-33734          
1 63367U 25063E   26123.84737307  .00016693  00000+0  57445-3 0  9996
2 63367  53.1594 166.2319 0001346  87.5156 272.5999 15.30200197 63019
STARLINK-33578          
1 63368U 25063F   26123.47920614  .00017564  00000+0  60365-3 0  9994
2 63368  53.1589 155.4426 0001156  77.4055 282.7075 15.30204915 63120
STARLINK-33626          
1 63369U 25063G   26123.49186928  .00029834  00000+0  10152-2 0  9990
2 63369  53.1584 155.5158 0001417  83.5665 276.5497 15.30206104 63136
STARLINK-33657          
1 63370U 25063H   26123.39615596  .00043764  00000+0  10080-2 0  9997
2 63370  53.1588 157.7590 0002114  86.3033 273.8215 15.42199653 63097
STARLINK-33648          
1 63371U 25063J   26123.46718273  .00022745  00000+0  77753-3 0  9999
2 63371  53.1574 158.2052 0000744 112.6583 247.4497 15.30207735 63145
STARLINK-33614          
1 63372U 25063K   26123.47710083  .00018234  00000+0  62626-3 0  9993
2 63372  53.1594 155.4242 0001123  83.2424 276.8705 15.30200221 63182
STARLINK-33617          
1 63373U 25063L   26123.47286265  .00027948  00000+0  95099-3 0  9996
2 63373  53.1584 155.3946 0001220  80.9169 279.1969 15.30240622 63132
STARLINK-33618          
1 63374U 25063M   26123.40439333  .00021949  00000+0  75078-3 0  9996
2 63374  53.1591 155.6779 0001106  78.8986 281.2139 15.30208783 63173
STARLINK-33621          
1 63375U 25063N   26123.46865312  .00010102  00000+0  35269-3 0  9990
2 63375  53.1581 155.3691 0001129  89.5932 270.5198 15.30202659 63136
STARLINK-33539          
1 63376U 25063P   26123.85475928  .00020689  00000+0  70859-3 0  9999
2 63376  53.1587 166.2796 0000884  70.1881 289.9215 15.30204990 63017
STARLINK-33634          
1 63377U 25063Q   26123.82635818  .00019234  00000+0  65970-3 0  9995
2 63377  53.1574 156.1748 0001300  92.0100 268.1050 15.30206602 63209
STARLINK-33640          
1 63378U 25063R   26123.50505998  .00019297  00000+0  66175-3 0  9993
2 63378  53.1588 157.7246 0000918  60.2686 299.8406 15.30209814 63153
STARLINK-33636          
1 63379U 25063S   26123.47994258  .00016755  00000+0  55279-3 0  9990
2 63379  53.1594 157.5786 0003122  20.2409 339.8716 15.31563458 63109
STARLINK-33653          
1 63380U 25063T   26123.45029965  .00018333  00000+0  62946-3 0  9997
2 63380  53.1565 158.0963 0001005  82.6101 277.5014 15.30206424 63094
STARLINK-33643          
1 63381U 25063U   26123.51033619  .00028311  00000+0  96404-3 0  9999
2 63381  53.1570 157.7589 0000890  84.0365 276.0737 15.30210723 63150
STARLINK-33748          
1 63383U 25063W   26123.51774898  .00020607  00000+0  70578-3 0  9996
2 63383  53.1585 168.4557 0001233  78.6066 281.5073 15.30208052 63001
STARLINK-33658          
1 63384U 25063X   26123.39735252  .00032731  00000+0  75771-3 0  9995
2 63384  53.1601 157.7607 0000772 109.5959 250.5130 15.42186687 63147
STARLINK-33616          
1 63385U 25063Y   26123.84221331  .00030425  00000+0  10351-2 0  9994
2 63385  53.1595 166.9305 0001162  89.8611 270.2523 15.30203915 63007
STARLINK-33571          
1 63386U 25063Z   26123.83335647 -.00003324  00000+0 -87266-4 0  9991
2 63386  53.1572 166.6355 0001313 105.0918   3.8081 15.34408891  5913
STARLINK-33533          
1 63387U 25063AA  26123.35068644  .00018049  00000+0  61981-3 0  9992
2 63387  53.1600 156.0537 0001514  98.9379 261.1793 15.30210975 63110
STARLINK-33629          
1 63388U 25063AB  26123.36018224  .00025914  00000+0  88348-3 0  9998
2 63388  53.1582 156.1112 0001578  92.1026 268.0156 15.30218879 63160
STARLINK-33656          
1 63389U 25063AC  26123.38193829  .00030286  00000+0  98234-3 0  9999
2 63389  53.1566 158.3787 0000902  79.3433 280.7670 15.31746477 63134
LEMUR-2-BALTO           
1 63395U 25052BH  26123.68751654  .00005837  00000+0  47856-3 0  9991
2 63395  97.6915  17.8428 0002107 172.1632 187.9624 14.99629785 62091
TJS-16                  
1 63397U 25064A   26123.72727458 -.00000098  00000+0  00000+0 0  9997
2 63397   0.9841  81.6208 0004496 284.8542 277.5185  1.00271548  3942
STARLINK-33531          
1 63399U 25065A   26123.43622186  .00032986  00000+0  12025-2 0  9993
2 63399  42.9977 157.8199 0001488 268.7464  91.3217 15.27590738 61218
